{
  "type": "FeatureCollection",
  "features": [
    {
      "type": "Feature",
      "properties": {
        "norad_id": 32275,
        "name": "COSMOS 2433 (720)",
        "group": "glo-ops",
        "lat": -15.67103622948663,
        "lon": -44.94500734336737,
        "alt_km": 19132.068615654385,
        "timestamp": "2025-12-08T08:59:01.026457+00:00",
        "meta_object_name": "COSMOS 2433 (720)",
        "meta_object_id": "2007-052A",
        "meta_epoch": "2025-12-06T23:44:11.537952",
        "meta_mean_motion": 2.13103921,
        "meta_eccentricity": 0.00054556,
        "meta_inclination": 65.6864,
        "meta_ra_of_asc_node": 322.3989,
        "meta_arg_of_pericenter": 253.5069,
        "meta_mean_anomaly": 106.429,
        "meta_ephemeris_type": 0,
        "meta_classification_type": "U",
        "meta_norad_cat_id": 32275,
        "meta_element_set_no": 999,
        "meta_rev_at_epoch": 14096,
        "meta_bstar": 0,
        "meta_mean_motion_dot": -5e-07,
        "meta_mean_motion_ddot": 0,
        "tle_line1": "1 32275U 07052A   25340.98902243 -.00000050  00000+0  00000+0 0  9998",
        "tle_line2": "2 32275  65.6864 322.3989 0005455 253.5069 106.4290  2.13103921140965"
      },
      "geometry": {
        "type": "Point",
        "coordinates": [
          -44.94500734336737,
          -15.67103622948663
        ]
      }
    },
    {
      "type": "Feature",
      "properties": {
        "norad_id": 32276,
        "name": "COSMOS 2432 (719)",
        "group": "glo-ops",
        "lat": -60.559560961197505,
        "lon": -90.69804874463955,
        "alt_km": 19110.116492713434,
        "timestamp": "2025-12-08T08:59:01.026481+00:00",
        "meta_object_name": "COSMOS 2432 (719)",
        "meta_object_id": "2007-052B",
        "meta_epoch": "2025-12-07T02:45:37.162080",
        "meta_mean_motion": 2.13103072,
        "meta_eccentricity": 0.00112789,
        "meta_inclination": 65.7022,
        "meta_ra_of_asc_node": 322.5187,
        "meta_arg_of_pericenter": 312.1761,
        "meta_mean_anomaly": 88.8989,
        "meta_ephemeris_type": 0,
        "meta_classification_type": "U",
        "meta_norad_cat_id": 32276,
        "meta_element_set_no": 999,
        "meta_rev_at_epoch": 14099,
        "meta_bstar": 0,
        "meta_mean_motion_dot": -5e-07,
        "meta_mean_motion_ddot": 0,
        "tle_line1": "1 32276U 07052B   25341.11501345 -.00000050  00000+0  00000+0 0  9993",
        "tle_line2": "2 32276  65.7022 322.5187 0011278 312.1761  88.8989  2.13103072140994"
      },
      "geometry": {
        "type": "Point",
        "coordinates": [
          -90.69804874463955,
          -60.559560961197505
        ]
      }
    },
    {
      "type": "Feature",
      "properties": {
        "norad_id": 32393,
        "name": "COSMOS 2434 (721)",
        "group": "glo-ops",
        "lat": -46.27701376390798,
        "lon": 48.57024853887442,
        "alt_km": 19146.34359012131,
        "timestamp": "2025-12-08T08:59:01.026496+00:00",
        "meta_object_name": "COSMOS 2434 (721)",
        "meta_object_id": "2007-065A",
        "meta_epoch": "2025-12-07T08:44:57.197760",
        "meta_mean_motion": 2.13101207,
        "meta_eccentricity": 0.00044814,
        "meta_inclination": 64.3148,
        "meta_ra_of_asc_node": 198.3849,
        "meta_arg_of_pericenter": 71.0403,
        "meta_mean_anomaly": 107.6412,
        "meta_ephemeris_type": 0,
        "meta_classification_type": "U",
        "meta_norad_cat_id": 32393,
        "meta_element_set_no": 999,
        "meta_rev_at_epoch": 13968,
        "meta_bstar": 0,
        "meta_mean_motion_dot": 6e-07,
        "meta_mean_motion_ddot": 0,
        "tle_line1": "1 32393U 07065A   25341.36455090  .00000060  00000+0  00000+0 0  9999",
        "tle_line2": "2 32393  64.3148 198.3849 0004481  71.0403 107.6412  2.13101207139687"
      },
      "geometry": {
        "type": "Point",
        "coordinates": [
          48.57024853887442,
          -46.27701376390798
        ]
      }
    },
    {
      "type": "Feature",
      "properties": {
        "norad_id": 32395,
        "name": "COSMOS 2436 (723)",
        "group": "glo-ops",
        "lat": 5.717289487466984,
        "lon": -158.81416878845232,
        "alt_km": 19084.61723535979,
        "timestamp": "2025-12-08T08:59:01.026510+00:00",
        "meta_object_name": "COSMOS 2436 (723)",
        "meta_object_id": "2007-065C",
        "meta_epoch": "2025-12-07T03:33:41.330592",
        "meta_mean_motion": 2.13100006,
        "meta_eccentricity": 0.00177394,
        "meta_inclination": 64.3236,
        "meta_ra_of_asc_node": 198.4623,
        "meta_arg_of_pericenter": 9.1382,
        "meta_mean_anomaly": 136.8175,
        "meta_ephemeris_type": 0,
        "meta_classification_type": "U",
        "meta_norad_cat_id": 32395,
        "meta_element_set_no": 999,
        "meta_rev_at_epoch": 13963,
        "meta_bstar": 0,
        "meta_mean_motion_dot": 6.2e-07,
        "meta_mean_motion_ddot": 0,
        "tle_line1": "1 32395U 07065C   25341.14839503  .00000062  00000+0  00000+0 0  9994",
        "tle_line2": "2 32395  64.3236 198.4623 0017739   9.1382 136.8175  2.13100006139637"
      },
      "geometry": {
        "type": "Point",
        "coordinates": [
          -158.81416878845232,
          5.717289487466984
        ]
      }
    },
    {
      "type": "Feature",
      "properties": {
        "norad_id": 36111,
        "name": "COSMOS 2456 (730)",
        "group": "glo-ops",
        "lat": 27.289834844939424,
        "lon": 91.46742223764844,
        "alt_km": 19127.096567950302,
        "timestamp": "2025-12-08T08:59:01.026522+00:00",
        "meta_object_name": "COSMOS 2456 (730)",
        "meta_object_id": "2009-070A",
        "meta_epoch": "2025-12-07T20:44:40.162272",
        "meta_mean_motion": 2.13103432,
        "meta_eccentricity": 0.00030434,
        "meta_inclination": 64.8974,
        "meta_ra_of_asc_node": 77.5047,
        "meta_arg_of_pericenter": 297.6461,
        "meta_mean_anomaly": 61.5166,
        "meta_ephemeris_type": 0,
        "meta_classification_type": "U",
        "meta_norad_cat_id": 36111,
        "meta_element_set_no": 999,
        "meta_rev_at_epoch": 12434,
        "meta_bstar": 0,
        "meta_mean_motion_dot": -1.5e-07,
        "meta_mean_motion_ddot": 0,
        "tle_line1": "1 36111U 09070A   25341.86435373 -.00000015  00000+0  00000+0 0  9997",
        "tle_line2": "2 36111  64.8974  77.5047 0003043 297.6461  61.5166  2.13103432124345"
      },
      "geometry": {
        "type": "Point",
        "coordinates": [
          91.46742223764844,
          27.289834844939424
        ]
      }
    },
    {
      "type": "Feature",
      "properties": {
        "norad_id": 36112,
        "name": "COSMOS 2457 (733)",
        "group": "glo-ops",
        "lat": 18.385311285099807,
        "lon": -111.61306810082826,
        "alt_km": 19115.93950634642,
        "timestamp": "2025-12-08T08:59:01.026533+00:00",
        "meta_object_name": "COSMOS 2457 (733)",
        "meta_object_id": "2009-070B",
        "meta_epoch": "2025-12-07T05:33:13.940640",
        "meta_mean_motion": 2.13100799,
        "meta_eccentricity": 0.00047672,
        "meta_inclination": 64.8824,
        "meta_ra_of_asc_node": 77.374,
        "meta_arg_of_pericenter": 157.9691,
        "meta_mean_anomaly": 204.8145,
        "meta_ephemeris_type": 0,
        "meta_classification_type": "U",
        "meta_norad_cat_id": 36112,
        "meta_element_set_no": 999,
        "meta_rev_at_epoch": 12434,
        "meta_bstar": 0,
        "meta_mean_motion_dot": -1.6e-07,
        "meta_mean_motion_ddot": 0,
        "tle_line1": "1 36112U 09070B   25341.23141135 -.00000016  00000+0  00000+0 0  9990",
        "tle_line2": "2 36112  64.8824  77.3740 0004767 157.9691 204.8145  2.13100799124347"
      },
      "geometry": {
        "type": "Point",
        "coordinates": [
          -111.61306810082826,
          18.385311285099807
        ]
      }
    },
    {
      "type": "Feature",
      "properties": {
        "norad_id": 36402,
        "name": "COSMOS 2460 (732)",
        "group": "glo-ops",
        "lat": 19.015164724377456,
        "lon": 131.88212721162816,
        "alt_km": 19130.52852102455,
        "timestamp": "2025-12-08T08:59:01.026545+00:00",
        "meta_object_name": "COSMOS 2460 (732)",
        "meta_object_id": "2010-007C",
        "meta_epoch": "2025-12-07T11:08:59.841600",
        "meta_mean_motion": 2.13106055,
        "meta_eccentricity": 0.00027105,
        "meta_inclination": 65.5326,
        "meta_ra_of_asc_node": 320.9516,
        "meta_arg_of_pericenter": 273.9316,
        "meta_mean_anomaly": 267.1288,
        "meta_ephemeris_type": 0,
        "meta_classification_type": "U",
        "meta_norad_cat_id": 36402,
        "meta_element_set_no": 999,
        "meta_rev_at_epoch": 12264,
        "meta_bstar": 0,
        "meta_mean_motion_dot": -4.9e-07,
        "meta_mean_motion_ddot": 0,
        "tle_line1": "1 36402U 10007C   25341.46458150 -.00000049  00000+0  00000+0 0  9993",
        "tle_line2": "2 36402  65.5326 320.9516 0002710 273.9316 267.1288  2.13106055122643"
      },
      "geometry": {
        "type": "Point",
        "coordinates": [
          131.88212721162816,
          19.015164724377456
        ]
      }
    }
  ]
}